SPACEBEE-84             
1 47706U 21015H   22317.45557962  .00194766  00000+0  23751-2 0  9993
2 47706  97.3955  37.6989 0006811 255.3842 104.6660 15.59804524 95269
SPACEBEE-83             
1 47707U 21015J   22317.21456973  .00216897  00000+0  24393-2 0  9991
2 47707  97.3926  37.5202 0008227 262.8494  97.1828 15.61842691 95233
SPACEBEE-82             
1 47708U 21015K   22317.43258232  .00251887  00000+0  25415-2 0  9998
2 47708  97.3932  38.1414 0006984 257.9091 102.1385 15.64532529 95299
SPACEBEE-81             
1 47709U 21015L   22317.21280277  .00263621  00000+0  24966-2 0  9998
2 47709  97.3936  38.1535 0005921 250.8390 109.2229 15.66104502 95194
SPACEBEE-78             
1 47710U 21015M   22317.17483924  .00432608  00000+0  28388-2 0  9994
2 47710  97.3912  38.6596 0009887 276.6634  83.3505 15.74465756 95306
SPACEBEE-76             
1 47711U 21015N   22317.20062243  .00811227  00000+0  32798-2 0  9994
2 47711  97.3851  39.3651 0007648 271.7818  88.2575 15.84313758 95353
SPACEBEE-80             
1 47712U 21015P   22317.17957424  .00346948  00000+0  28050-2 0  9994
2 47712  97.3939  38.3568 0007867 264.1738  95.8627 15.69752658 95280
SPACEBEE-77             
1 47714U 21015Q   22317.19412123  .00767486  00000+0  32820-2 0  9994
2 47714  97.3887  39.2521 0009050 279.7711  80.2536 15.83208904 95263
SPACEBEE-79             
1 47715U 21015R   22317.22390134  .00305800  00000+0  26520-2 0  9994
2 47715  97.3984  38.4127 0006283 249.7210 110.3376 15.68166060 95289
SPACEBEE-65             
1 48626U 21006ES  22317.08569005  .00041437  00000+0  13043-2 0  9994
2 48626  97.1891   0.3222 0011811  90.4036 269.8560 15.32748465100086
SPACEBEE-64             
1 48627U 21006ET  22317.12023397  .00040569  00000+0  12630-2 0  9995
2 48627  97.1890   0.4247 0011742  89.4605 270.7983 15.33105787100093
SPACEBEE-66             
1 48628U 21006EU  22317.08614159  .00042639  00000+0  13730-2 0  9995
2 48628  97.1893   0.1692 0011941  89.9975 270.2635 15.32012391100078
SPACEBEE-67             
1 48629U 21006EV  22317.37226177  .00040819  00000+0  13257-2 0  9999
2 48629  97.1890   0.3902 0012179  90.3213 269.9425 15.31743850100114
SPACEBEE-68             
1 48630U 21006EW  22317.07684331  .00040745  00000+0  13360-2 0  9991
2 48630  97.1888   0.0345 0012337  90.5597 269.7059 15.31435461100065
SPACEBEE-69             
1 48631U 21006EX  22317.37007112  .00038608  00000+0  12786-2 0  9997
2 48631  97.1891   0.2532 0012553  89.9649 270.3031 15.31123621100105
SPACEBEE-70             
1 48632U 21006EY  22317.07732151  .00038665  00000+0  12915-2 0  9990
2 48632  97.1892 359.8912 0012680  91.3293 268.9401 15.30844971100050
SPACEBEE-71             
1 48633U 21006EZ  22317.31660233  .00036961  00000+0  12472-2 0  9994
2 48633  97.1893   0.0204 0012905  90.6661 269.6059 15.30522805100081
SPACEBEE-72             
1 48634U 21006FA  22317.31608071  .00035706  00000+0  12258-2 0  9995
2 48634  97.1895 359.8795 0013071  90.7435 269.5304 15.29968464100073
SPACEBEE-73             
1 48635U 21006FB  22317.34981543  .00035816  00000+0  12398-2 0  9994
2 48635  97.1894 359.8384 0013277  91.4947 268.7815 15.29695734100076
SPACEBEE-74             
1 48636U 21006FC  22317.36967099  .00032488  00000+0  11510-2 0  9994
2 48636  97.1894 359.6668 0013728  91.7600 268.5213 15.28953602100069
SPACEBEE-75             
1 48637U 21006FD  22317.09898706  .00031994  00000+0  11496-2 0  9997
2 48637  97.1893 359.2718 0014119  92.7106 267.5750 15.28488927100011
SPACEBEENZ-10           
1 48882U 21059D   22317.34304099  .00021861  00000+0  93407-3 0  9997
2 48882  97.5697  87.4155 0007075 308.7171  51.3432 15.22860297 76565
SPACEBEE-100            
1 48883U 21059E   22317.33988205  .00012927  00000+0  61978-3 0  9995
2 48883  97.5733  86.5936 0007463 310.3061  49.7520 15.19017955 76506
SPACEBEE-101            
1 48884U 21059F   22317.36239842  .00013160  00000+0  63498-3 0  9994
2 48884  97.5740  86.5738 0007242 314.1126  45.9512 15.18792297 76501
SPACEBEE-102            
1 48886U 21059H   22317.34802027  .00012165  00000+0  58694-3 0  9991
2 48886  97.5737  86.5924 0006940 312.8028  47.2621 15.18815790 76506
SPACEBEENZ-9            
1 48887U 21059J   22317.34416423  .00021813  00000+0  93188-3 0  9990
2 48887  97.5692  87.4081 0006981 309.3032  50.7584 15.22865117 76568
SPACEBEE-103            
1 48888U 21059K   22317.36619588  .00013928  00000+0  66446-3 0  9995
2 48888  97.5742  86.7308 0007450 310.1416  49.9164 15.19171245 76514
SPACEBEENZ-7            
1 48889U 21059L   22317.36147996  .00022114  00000+0  93886-3 0  9990
2 48889  97.5713  87.6707 0007474 308.8701  51.1868 15.23071210 76571
SPACEBEE-104            
1 48890U 21059M   22317.32518606  .00014063  00000+0  66888-3 0  9994
2 48890  97.5734  86.5969 0007447 313.7649  46.2968 15.19273154 76505
SPACEBEENZ-8            
1 48891U 21059N   22317.30639720  .00022281  00000+0  95057-3 0  9995
2 48891  97.5716  87.5921 0007487 309.1279  50.9291 15.22904145 76569
SPACEBEE-106            
1 48893U 21059Q   22317.30462335  .00013578  00000+0  65133-3 0  9994
2 48893  97.5758  86.7795 0007874 313.6083  46.4497 15.18984024 76501
SPACEBEE-107            
1 48894U 21059R   22317.36941122  .00014683  00000+0  69087-3 0  9997
2 48894  97.5761  87.0084 0007730 311.5986  48.4585 15.19636089 76529
SPACEBEE-108            
1 48895U 21059S   22317.36796884  .00013474  00000+0  64640-3 0  9998
2 48895  97.5756  86.8250 0007975 312.8658  47.1905 15.18981063 76512
SPACEBEE-105            
1 48896U 21059T   22317.34851939  .00013516  00000+0  64462-3 0  9999
2 48896  97.5737  86.5657 0007465 303.0586  56.9930 15.19188934 76508
SPACEBEE-109            
1 48897U 21059U   22317.32468643  .00014304  00000+0  67718-3 0  9997
2 48897  97.5756  86.8803 0008130 310.8294  49.2235 15.19426184 76514
SPACEBEE-110            
1 48899U 21059W   22317.31309759  .00014443  00000+0  67798-3 0  9992
2 48899  97.5760  87.0847 0008214 308.6784  51.3715 15.19717243 76521
SPACEBEE-111            
1 48904U 21059AB  22317.34935169  .00013915  00000+0  64402-3 0  9994
2 48904  97.5769  87.3865 0008976 307.7888  52.2533 15.20209137 76540
SPACEBEE-92             
1 48932U 21059BF  22317.31463349  .00056426  00000+0  15893-2 0  9991
2 48932  97.5577  90.8243 0012836 291.5292  68.4583 15.36173183 76818
SPACEBEE-89             
1 48933U 21059BG  22317.35067044  .00069730  00000+0  18314-2 0  9991
2 48933  97.5565  91.2116 0012346 288.9507  71.0399 15.38288163 76840
SPACEBEE-96             
1 48934U 21059BH  22317.36395494  .00051314  00000+0  15098-2 0  9991
2 48934  97.5587  90.6249 0012872 292.0004  67.9870 15.34827672 76801
SPACEBEE-88             
1 48935U 21059BJ  22317.31361582  .00071809  00000+0  18412-2 0  9992
2 48935  97.5550  91.2240 0012797 289.6990  70.2874 15.39012782 76840
SPACEBEE-99             
1 48936U 21059BK  22317.33738937  .00047429  00000+0  14589-2 0  9999
2 48936  97.5593  90.3780 0012876 293.2271  66.7614 15.33440067 76788
SPACEBEE-94             
1 48937U 21059BL  22317.36271810  .00056315  00000+0  16127-2 0  9999
2 48937  97.5569  90.7416 0012731 292.1017  67.8874 15.35655789 76813
SPACEBEE-93             
1 48939U 21059BN  22317.33874887  .00068016  00000+0  18062-2 0  9992
2 48939  97.5562  91.0715 0013260 289.7675  70.2139 15.37943720 76835
SPACEBEE-91             
1 48940U 21059BP  22317.32794631  .00065344  00000+0  17462-2 0  9995
2 48940  97.5567  91.0955 0012965 290.3082  69.6769 15.37765251 76831
SPACEBEE-95             
1 48945U 21059BU  22317.32575294  .00058214  00000+0  16467-2 0  9994
2 48945  97.5584  90.8322 0012927 291.0963  68.8898 15.36029762 76815
SPACEBEE-97             
1 48946U 21059BV  22317.34629059  .00049397  00000+0  14934-2 0  9995
2 48946  97.5590  90.5009 0012465 293.0061  66.9866 15.33984096 76798
SPACEBEE-90             
1 48947U 21059BW  22317.37245877  .00066793  00000+0  17712-2 0  9997
2 48947  97.5564  91.1833 0012499 288.7519  71.2369 15.38003264 76845
SPACEBEE-98             
1 48949U 21059BY  22317.33819743  .00049250  00000+0  14832-2 0  9993
2 48949  97.5618  90.5632 0013358 291.5062  68.4755 15.34096185 76798
SPACEBEE-121            
1 52009U 22026B   22317.45191917  .00014029  00000+0  67383-3 0  9995
2 52009  97.5071 315.7871 0027775 114.3833 246.0304 15.18609251 36770
SPACEBEE-114            
1 52010U 22026C   22317.43343960  .00013165  00000+0  62807-3 0  9998
2 52010  97.5094 315.8774 0026828 115.8762 244.5243 15.18880419 36788
SPACEBEE-126            
1 52011U 22026D   22317.43897378  .00012858  00000+0  61347-3 0  9992
2 52011  97.5078 315.8252 0027351 113.6240 246.7870 15.18872778 36779
SPACEBEE-118            
1 52012U 22026E   22317.45052608  .00014598  00000+0  68855-3 0  9998
2 52012  97.5086 315.9902 0026178 117.4123 242.9779 15.19266426 36796
SPACEBEE-120            
1 52013U 22026F   22317.47513672  .00015043  00000+0  71402-3 0  9992
2 52013  97.5081 315.9261 0028331 111.4983 248.9276 15.18989140 36782
SPACEBEE-122            
1 52014U 22026G   22317.47074662  .00015173  00000+0  71869-3 0  9995
2 52014  97.5083 315.9364 0027065 113.7362 246.6716 15.19090734 36785
SPACEBEE-119            
1 52015U 22026H   22317.44802812  .00014227  00000+0  68314-3 0  9999
2 52015  97.5088 315.8467 0027981 114.6342 245.7811 15.18610315 36776
SPACEBEE-115            
1 52016U 22026J   22317.48230384  .00014733  00000+0  70141-3 0  9996
2 52016  97.5091 315.9623 0027405 114.2892 246.1209 15.18912653 36780
SPACEBEENZ-14           
1 52018U 22026L   22317.45122832  .00018474  00000+0  84352-3 0  9998
2 52018  97.5081 316.1341 0026990 113.1406 247.2677 15.20313584 36791
SPACEBEENZ-11           
1 52019U 22026M   22317.49747309  .00019701  00000+0  89131-3 0  9999
2 52019  97.5079 316.2219 0026820 112.7276 247.6798 15.20619808 36769
SPACEBEE-127            
1 52020U 22026N   22317.23219563  .00012878  00000+0  61673-3 0  9998
2 52020  97.5078 315.6454 0027460 114.9667 245.4424 15.18739294 36696
